{
  "links" : {
    "next" : "https://api.nasa.gov/neo/rest/v1/feed?start_date=1999-05-23&end_date=1999-05-23&detailed=true&api_key=t0TVs3DtDT2H8Oy2Zy8m2eVrNsAVKAexjcZXUckd",
    "prev" : "https://api.nasa.gov/neo/rest/v1/feed?start_date=1999-05-21&end_date=1999-05-21&detailed=true&api_key=t0TVs3DtDT2H8Oy2Zy8m2eVrNsAVKAexjcZXUckd",
    "self" : "https://api.nasa.gov/neo/rest/v1/feed?start_date=1999-05-22&end_date=1999-05-22&detailed=true&api_key=t0TVs3DtDT2H8Oy2Zy8m2eVrNsAVKAexjcZXUckd"
  },
  "element_count" : 5,
  "near_earth_objects" : {
    "1999-05-22" : [ {
      "links" : {
        "self" : "https://api.nasa.gov/neo/rest/v1/neo/3605565?api_key=t0TVs3DtDT2H8Oy2Zy8m2eVrNsAVKAexjcZXUckd"
      },
      "neo_reference_id" : "3605565",
      "name" : "(2012 LD1)",
      "nasa_jpl_url" : "http://ssd.jpl.nasa.gov/sbdb.cgi?sstr=3605565",
      "absolute_magnitude_h" : 21.8,
      "estimated_diameter" : {
        "kilometers" : {
          "estimated_diameter_min" : 0.1160259082,
          "estimated_diameter_max" : 0.2594418179
        },
        "meters" : {
          "estimated_diameter_min" : 116.0259082094,
          "estimated_diameter_max" : 259.4418179074
        },
        "miles" : {
          "estimated_diameter_min" : 0.0720951346,
          "estimated_diameter_max" : 0.1612096218
        },
        "feet" : {
          "estimated_diameter_min" : 380.6624406898,
          "estimated_diameter_max" : 851.1870938635
        }
      },
      "is_potentially_hazardous_asteroid" : false,
      "close_approach_data" : [ {
        "close_approach_date" : "1999-05-22",
        "epoch_date_close_approach" : 927356400000,
        "relative_velocity" : {
          "kilometers_per_second" : "10.7966813376",
          "kilometers_per_hour" : "38868.0528154028",
          "miles_per_hour" : "24151.0964841041"
        },
        "miss_distance" : {
          "astronomical" : "0.2215285216",
          "lunar" : "86.1745910645",
          "kilometers" : "33140194",
          "miles" : "20592362"
        },
        "orbiting_body" : "Earth"
      } ],
      "orbital_data" : {
        "orbit_id" : "23",
        "orbit_determination_date" : "2017-04-06 08:49:38",
        "orbit_uncertainty" : "2",
        "minimum_orbit_intersection" : ".0848699",
        "jupiter_tisserand_invariant" : "5.292",
        "epoch_osculation" : "2458000.5",
        "eccentricity" : ".1176042481012951",
        "semi_major_axis" : "1.1889502422664",
        "inclination" : "15.23965697871666",
        "ascending_node_longitude" : "246.1373132972053",
        "orbital_period" : "473.5261270689481",
        "perihelion_distance" : "1.049124642994807",
        "perihelion_argument" : "303.2352334456799",
        "aphelion_distance" : "1.328775841537992",
        "perihelion_time" : "2457908.797585617890",
        "mean_anomaly" : "69.7171017403071",
        "mean_motion" : ".7602537207996169",
        "equinox" : "J2000"
      }
    }, {
      "links" : {
        "self" : "https://api.nasa.gov/neo/rest/v1/neo/3734190?api_key=t0TVs3DtDT2H8Oy2Zy8m2eVrNsAVKAexjcZXUckd"
      },
      "neo_reference_id" : "3734190",
      "name" : "(2015 VP66)",
      "nasa_jpl_url" : "http://ssd.jpl.nasa.gov/sbdb.cgi?sstr=3734190",
      "absolute_magnitude_h" : 22.3,
      "estimated_diameter" : {
        "kilometers" : {
          "estimated_diameter_min" : 0.0921626549,
          "estimated_diameter_max" : 0.2060819612
        },
        "meters" : {
          "estimated_diameter_min" : 92.1626548503,
          "estimated_diameter_max" : 206.0819612321
        },
        "miles" : {
          "estimated_diameter_min" : 0.057267201,
          "estimated_diameter_max" : 0.1280533543
        },
        "feet" : {
          "estimated_diameter_min" : 302.370924539,
          "estimated_diameter_max" : 676.1219416887
        }
      },
      "is_potentially_hazardous_asteroid" : false,
      "close_approach_data" : [ {
        "close_approach_date" : "1999-05-22",
        "epoch_date_close_approach" : 927356400000,
        "relative_velocity" : {
          "kilometers_per_second" : "13.4114055146",
          "kilometers_per_hour" : "48281.0598524394",
          "miles_per_hour" : "29999.9729955338"
        },
        "miss_distance" : {
          "astronomical" : "0.3047109781",
          "lunar" : "118.5325698853",
          "kilometers" : "45584116",
          "miles" : "28324656"
        },
        "orbiting_body" : "Earth"
      } ],
      "orbital_data" : {
        "orbit_id" : "9",
        "orbit_determination_date" : "2017-04-06 08:30:44",
        "orbit_uncertainty" : "3",
        "minimum_orbit_intersection" : ".195106",
        "jupiter_tisserand_invariant" : "6.207",
        "epoch_osculation" : "2458000.5",
        "eccentricity" : ".2578541380286098",
        "semi_major_axis" : ".9596152280896614",
        "inclination" : "18.97668030190287",
        "ascending_node_longitude" : "22.90621950352824",
        "orbital_period" : "343.3555910087729",
        "perihelion_distance" : ".7121744706114739",
        "perihelion_argument" : "168.8377020871293",
        "aphelion_distance" : "1.207055985567849",
        "perihelion_time" : "2458159.686182250592",
        "mean_anomaly" : "193.0971531820819",
        "mean_motion" : "1.048475718546845",
        "equinox" : "J2000"
      }
    } ]
  }
}